NORAD_CAT_ID,OBJECT_NAME,OBJECT_TYPE,EPOCH,MEAN_MOTION,ECCENTRICITY,INCLINATION,RA_OF_ASC_NODE,ARG_OF_PERICENTER,MEAN_ANOMALY,BSTAR,MEAN_MOTION_DOT,MEAN_MOTION_DDOT,TLE_LINE0,TLE_LINE1,TLE_LINE2,SEMIMAJOR_AXIS,PERIOD,APOGEE,PERIGEE,DECAYED
52992.0,STARLINK-4269,PAYLOAD,2022-07-22 12:00:00,15.73230352,0.0001449,53.2191,305.5898,42.5557,274.3382,-0.00057034,-0.00080011,0.0,0 STARLINK-4269,1 52992U 22076G   22203.50001157 -.00080011  00000-0 -57034-3 0  9996,2 52992  53.2191 305.5898 0001449  42.5557 274.3382 15.73230352  2859,6727.809,91.531,350.648,348.699,0.0
52992.0,STARLINK-4269,PAYLOAD,2022-07-22 20:00:01,15.73248505,0.0001719,53.218,303.9388,36.0051,9.8018,-0.00084331,-0.00117583,0.0,0 STARLINK-4269,1 52992U 22076G   22203.83334491 -.00117583  00000-0 -84331-3 0  9997,2 52992  53.2180 303.9388 0001719  36.0051   9.8018 15.73248505  2902,6727.757,91.53,350.778,348.465,0.0
52992.0,STARLINK-4269,PAYLOAD,2022-07-22 22:00:00,15.73263101,0.0001517,53.2193,303.5278,36.6049,121.4783,-0.00059792,-0.00083929,0.0,0 STARLINK-4269,1 52992U 22076G   22203.91667824 -.00083929  00000-0 -59792-3 0  9994,2 52992  53.2193 303.5278 0001517  36.6049 121.4783 15.73263101  1301,6727.715,91.53,350.601,348.56,0.0
52992.0,STARLINK-4269,PAYLOAD,2022-07-23 04:00:00,15.73201812,0.0001429,53.2193,302.2893,40.4515,94.3713,-0.00021498,-0.00030684,0.0,0 STARLINK-4269,1 52992U 22076G   22204.16667824 -.00030684  00000-0 -21498-3 0  9994,2 52992  53.2193 302.2893 0001429  40.4515  94.3713 15.73201812  2957,6727.89,91.533,350.716,348.7940000000001,0.0
52992.0,STARLINK-4269,PAYLOAD,2022-07-23 14:00:01,15.73161819,0.0001733999999999,53.2191,300.2292,36.8607,299.1266,-9.0298e-05,-0.00013253,0.0,0 STARLINK-4269,1 52992U 22076G   22204.58335648 -.00013253  00000-0 -90298-4 0  9994,2 52992  53.2191 300.2292 0001734  36.8607 299.1266 15.73161819  1304,6728.004,91.535,351.036,348.702,0.0
52992.0,STARLINK-4269,PAYLOAD,2022-07-23 22:00:00,15.73169868,0.0001733,53.2188,298.5795,40.1638,24.6672,-0.00011753,-0.00017061,0.0,0 STARLINK-4269,1 52992U 22076G   22204.91667824 -.00017061  00000-0 -11753-3 0  9994,2 52992  53.2188 298.5795 0001733  40.1638  24.6672 15.73169868  3078,6727.981,91.535,351.01199999999994,348.68,0.0
52992.0,STARLINK-4269,PAYLOAD,2022-07-24 14:00:01,15.731886,0.0001835,53.2193,295.2821,39.813,202.772,0.00015516,0.000212,0.0,0 STARLINK-4269,1 52992U 22076G   22205.58334491  .00021200  00000-0  15516-3 0  9998,2 52992  53.2193 295.2821 0001835  39.8130 202.7720 15.73188600  1305,6727.928000000001,91.534,351.027,348.55800000000005,0.0
52992.0,STARLINK-4269,PAYLOAD,2022-07-24 22:00:00,15.73209082,0.000169,53.2195,293.6317,35.938,295.5713,-0.00039852,-0.00056201,0.0,0 STARLINK-4269,1 52992U 22076G   22205.91667824 -.00056201  00000-0 -39852-3 0  9994,2 52992  53.2195 293.6317 0001690  35.9380 295.5713 15.73209082  1302,6727.869000000002,91.533,350.871,348.597,0.0
52992.0,STARLINK-4269,PAYLOAD,2022-07-25 06:00:00,15.73165268,0.0001616,53.219,291.9790000000001,40.1427,20.2574,0.00029465,0.00040872,0.0,0 STARLINK-4269,1 52992U 22076G   22206.25001157  .00040872  00000-0  29465-3 0  9997,2 52992  53.2190 291.9790 0001616  40.1427  20.2574 15.73165268  3285,6727.994000000002,91.535,350.946,348.772,0.0
52992.0,STARLINK-4269,PAYLOAD,2022-07-25 14:00:01,15.73356693,0.0001908,53.2184,290.3303,39.1409,110.1402,-0.0030491,-0.00411104,0.0,0 STARLINK-4269,1 52992U 22076G   22206.58334491 -.00411104  00000-0 -30491-2 0  9995,2 52992  53.2184 290.3303 0001908  39.1409 110.1402 15.73356693  1307,6727.448,91.524,350.597,348.03,0.0
52992.0,STARLINK-4269,PAYLOAD,2022-07-25 20:00:01,15.73302217,0.0001805,53.2173,289.0911,32.9011,93.1214,-0.0091202,-0.01146084,0.0,0 STARLINK-4269,1 52992U 22076G   22206.83334491 -.01146084  00000-0 -91202-2 0  9993,2 52992  53.2173 289.0911 0001805  32.9011  93.1214 15.73302217  3374,6727.604,91.527,350.68300000000005,348.254,0.0
52992.0,STARLINK-4269,PAYLOAD,2022-07-25 22:00:00,15.73080059,0.000159,53.2175,288.6778,36.7753,201.4814,-0.0089836,-0.01120994,0.0,0 STARLINK-4269,1 52992U 22076G   22206.91667824 -.01120994  00000-0 -89836-2 0  9993,2 52992  53.2175 288.6778 0001590  36.7753 201.4814 15.73080059  1306,6728.236999999999,91.54,351.172,349.032,0.0
52992.0,STARLINK-4269,PAYLOAD,2022-07-26 14:00:01,15.71467128,0.0001879,53.2175,285.3873,24.7153,29.1422,-0.0095146,-0.01109406,0.0,0 STARLINK-4269,1 52992U 22076G   22207.58334491 -.01109406  00000-0 -95146-2 0  9994,2 52992  53.2175 285.3873 0001879  24.7153  29.1422 15.71467128  1301,6732.84,91.634,355.97,353.44,0.0
52992.0,STARLINK-4269,PAYLOAD,2022-07-26 22:00:00,15.70664559,0.0001452,53.2175,283.7432,44.486,95.7247,-0.0098479,-0.01109607,0.0,0 STARLINK-4269,1 52992U 22076G   22207.91667824 -.01109607  00000-0 -98479-2 0  9995,2 52992  53.2175 283.7432 0001452  44.4860  95.7247 15.70664559  1305,6735.134,91.681,357.976,356.021,0.0
52992.0,STARLINK-4269,PAYLOAD,2022-07-27 04:00:01,15.70060805,0.0001561,53.2175,282.5114,38.9546,75.4533,-0.010074,-0.0110692999999999,0.0,0 STARLINK-4269,1 52992U 22076G   22208.16668981 -.01106930  00000-0 -10074-1 0  9998,2 52992  53.2175 282.5114 0001561  38.9546  75.4533 15.70060805  3588,6736.86,91.716,359.777,357.673,0.0
52992.0,STARLINK-4269,PAYLOAD,2022-07-27 14:00:01,15.69059059,0.0001436,53.2177,280.4653,40.776,269.2431,-0.010531,-0.011093,0.0,0 STARLINK-4269,1 52992U 22076G   22208.58334491 -.01109300  00000-0 -10531-1 0  9992,2 52992  53.2177 280.4653 0001436  40.7760 269.2431 15.69059059  1300,6739.727,91.775,362.56,360.624,0.0
52992.0,STARLINK-4269,PAYLOAD,2022-07-27 20:00:01,15.68457268,0.0001405,53.2174,279.2364,42.4162,240.2873,-0.010805,-0.01109962,0.0,0 STARLINK-4269,1 52992U 22076G   22208.83334491 -.01109962  00000-0 -10805-1 0  9998,2 52992  53.2174 279.2364 0001405  42.4162 240.2873 15.68457268  3699,6741.451,91.81,364.263,362.369,0.0
52992.0,STARLINK-4269,PAYLOAD,2022-07-27 22:00:00,15.68254866,0.0001412,53.2176,278.8269,36.8797,356.5986,-0.010864,-0.01107059,0.0,0 STARLINK-4269,1 52992U 22076G   22208.91667824 -.01107059  00000-0 -10864-1 0  9996,2 52992  53.2176 278.8269 0001412  36.8797 356.5986 15.68254866  1300,6742.031,91.822,364.848,362.944,0.0
52992.0,STARLINK-4269,PAYLOAD,2022-07-28 14:00:01,15.66646513,0.0001693,53.2176,275.561,39.554,157.9447,-0.011541,-0.01119443,0.0,0 STARLINK-4269,1 52992U 22076G   22209.58334491 -.01119443  00000-0 -11541-1 0  9994,2 52992  53.2176 275.5610 0001693  39.5540 157.9447 15.66646513  1308,6746.645,91.916,369.652,367.367,0.0
52992.0,STARLINK-4269,PAYLOAD,2022-07-28 22:00:00,15.65848264,0.0001455,53.2176,273.9284,40.3697,237.6917,-0.012017,-0.01127534,0.0,0 STARLINK-4269,1 52992U 22076G   22209.91667824 -.01127534  00000-0 -12017-1 0  9999,2 52992  53.2176 273.9284 0001455  40.3697 237.6917 15.65848264  3863,6748.937,91.963,371.784,369.82,0.0
52992.0,STARLINK-4269,PAYLOAD,2022-07-29 14:00:01,15.64237268,0.0001628,53.2177,270.6741,34.574,41.7202,-0.012704,-0.01118287,0.0,0 STARLINK-4269,1 52992U 22076G   22210.58334491 -.01118287  00000-0 -12704-1 0  9993,2 52992  53.2177 270.6741 0001628  34.5740  41.7202 15.64237268  1305,6753.57,92.058,376.535,374.336,0.0
52992.0,STARLINK-4269,PAYLOAD,2022-07-29 20:00:01,15.63636796,0.0001844,53.2175,269.4536,25.9597,18.6769,-0.0130479999999999,-0.0112123,0.0,0 STARLINK-4269,1 52992U 22076G   22210.83334491 -.01121230  00000-0 -13048-1 0  9995,2 52992  53.2175 269.4536 0001844  25.9597  18.6769 15.63636796  4004,6755.299,92.093,378.41,375.918,0.0
52992.0,STARLINK-4269,PAYLOAD,2022-07-29 22:00:00,15.63435643,0.0001889,53.2177,269.0472,30.3492,123.6143,-0.0131349999999999,-0.01119889,0.0,0 STARLINK-4269,1 52992U 22076G   22210.91667824 -.01119889  00000-0 -13135-1 0  9997,2 52992  53.2177 269.0472 0001889  30.3492 123.6143 15.63435643  1305,6755.879,92.105,379.02,376.467,0.0
52992.0,STARLINK-4269,PAYLOAD,2022-07-30 12:00:00,15.62030445,0.0001678,53.2177,266.2096,42.0925,155.4686,-0.013871,-0.01118947,0.0,0 STARLINK-4269,1 52992U 22076G   22211.50001157 -.01118947  00000-0 -13871-1 0  9995,2 52992  53.2177 266.2096 0001678  42.0925 155.4686 15.62030445  4110,6759.93,92.188,382.929,380.66,0.0
52992.0,STARLINK-4269,PAYLOAD,2022-07-30 14:00:01,15.61829748,0.0001494,53.2175,265.8049,39.0474,267.3578,-0.013981,-0.01118927,0.0,0 STARLINK-4269,1 52992U 22076G   22211.58334491 -.01118927  00000-0 -13981-1 0  9993,2 52992  53.2175 265.8049 0001494  39.0474 267.3578 15.61829748  1304,6760.509,92.2,383.384,381.364,0.0
52992.0,STARLINK-4269,PAYLOAD,2022-07-30 22:00:00,15.61027397,0.0001657,53.2175,264.1838,28.4997,352.681,-0.014444,-0.01120305,0.0,0 STARLINK-4269,1 52992U 22076G   22211.91667824 -.01120305  00000-0 -14444-1 0  9997,2 52992  53.2175 264.1838 0001657  28.4997 352.6810 15.61027397  1302,6762.825,92.247,385.811,383.57,0.0
52992.0,STARLINK-4269,PAYLOAD,2022-07-31 04:00:00,15.60425241,0.000149,53.2175,262.9704,36.8284,309.7996,-0.014768,-0.01119074,0.0,0 STARLINK-4269,1 52992U 22076G   22212.16667824 -.01119074  00000-0 -14768-1 0  9995,2 52992  53.2175 262.9704 0001490  36.8284 309.7996 15.60425241  4217,6764.565,92.283,387.43800000000016,385.422,0.0
52992.0,STARLINK-4269,PAYLOAD,2022-07-31 14:00:01,15.59416536,0.0001786999999999,53.2174,260.9532,35.9431,131.892,-0.015225,-0.01110713,0.0,0 STARLINK-4269,1 52992U 22076G   22212.58334491 -.01110713  00000-0 -15225-1 0  9992,2 52992  53.2174 260.9532 0001787  35.9431 131.8920 15.59416536  1309,6767.482,92.342,390.556,388.137,0.0
52992.0,STARLINK-4269,PAYLOAD,2022-07-31 20:00:01,15.58818483,0.0002005,53.2175,259.7412,26.3207,105.5148,-0.0156919999999999,-0.01118199,0.0,0 STARLINK-4269,1 52992U 22076G   22212.83334491 -.01118199  00000-0 -15692-1 0  9994,2 52992  53.2175 259.7412 0002005  26.3207 105.5148 15.58818483  4312,6769.212,92.378,392.435,389.72,0.0
